STARLINK-37736          
1 69226U 26115R   26165.83339119 -.01255497  00000+0 -14073-1 0  9997
2 69226  97.2842 183.1725 0001054  79.7657 280.9477 15.65424404  4317
STARLINK-37737          
1 69227U 26115S   26165.83339119 -.02594854  00000+0 -26544-1 0  9998
2 69227  97.2839 183.1875 0001680  85.2502 313.6141 15.68443756  4334
STARLINK-37618          
1 69228U 26115T   26165.83339119 -.02088039  00000+0 -38407-1 0  9993
2 69228  97.2842 183.1052 0002237  71.5725 122.3271 15.52456419  4310
STARLINK-37679          
1 69229U 26115U   26165.83339119 -.02778603  00000+0 -50126-1 0  9999
2 69229  97.2841 183.1039 0002272  90.9837 115.4161 15.53440261  4313
STARLINK-37746          
1 69230U 26115V   26165.83339119 -.03205984  00000+0 -61350-1 0  9990
2 69230  97.2840 183.0897 0001597  90.4613  74.4058 15.51744687  4317
STARLINK-37557          
1 69231U 26115W   26165.83339119  .00077851  00000+0  14218-2 0  9998
2 69231  97.2837 183.0324 0001693 100.4498 287.1919 15.49132926  4312
STARLINK-37745          
1 69232U 26115X   26165.83339119 -.02550195  00000+0 -24693-1 0  9997
2 69232  97.2837 183.2068 0001622  74.3346   8.6995 15.69705609  4319
STARLINK-37739          
1 69233U 26115Y   26165.83339119 -.01258816  00000+0 -23297-1 0  9991
2 69233  97.2838 183.0875 0001446  81.3568  68.9625 15.51740916  4313
STARLINK-37755          
1 69234U 26115Z   26165.84484550  .00163453  00000+0  10741-2 0  9993
2 69234  97.2831 183.1560 0001325  79.2905 280.8509 15.75228478  4312
TJS-24                  
1 69235U 26116A   26165.87905080  .00000000  00000+0  00000+0 0  9996
2 69235   0.0123   7.6782 0000395  59.0300 243.1940  1.00267259   204
STARLINK-37665          
1 69238U 26117A   26165.71842697  .00115235  00000+0  54971-3 0  9994
2 69238  53.1586 256.0149 0000991  87.5588 272.5548 15.82018892  2587
STARLINK-37558          
1 69239U 26117B   26165.71747397  .00176316  00000+0  83227-3 0  9999
2 69239  53.1586 256.0083 0000964 120.8881 239.2237 15.82047166  2583
STARLINK-37680          
1 69240U 26117C   26165.84239051  .00195549  00000+0  92113-3 0  9991
2 69240  53.1586 255.3644 0002221  50.1807 309.9412 15.82034738  2605
STARLINK-37742          
1 69241U 26117D   26165.84060544  .00202448  00000+0  95244-3 0  9996
2 69241  53.1589 255.3530 0002387  39.5239 320.5958 15.82041235  2600
STARLINK-37718          
1 69242U 26117E   26165.83935625  .00047584  00000+0  23081-3 0  9995
2 69242  53.1589 255.3446 0002166  24.6138 335.4989 15.82013960  2608
STARLINK-37735          
1 69243U 26117F   26165.71291948  .00665652  00000+0  29408-2 0  9996
2 69243  53.1586 255.9780 0000448  81.5421 278.5653 15.82173095  2589
STARLINK-37757          
1 69244U 26117G   26165.71051556  .00139795  00000+0  66404-3 0  9998
2 69244  53.1589 255.9620 0000806  79.1215 280.9899 15.82025540  2588
STARLINK-37767          
1 69245U 26117H   26165.83260608  .00197462  00000+0  93007-3 0  9996
2 69245  53.1583 255.2974 0002072  41.4867 318.6313 15.82030972  2608
STARLINK-35759          
1 69246U 26117J   26165.83191551  .00167423  00000+0  79155-3 0  9999
2 69246  53.1586 255.2933 0000778  87.4636 272.6476 15.82039899  2608
STARLINK-37238          
1 69247U 26117K   26165.82747707  .00180436  00000+0  85150-3 0  9990
2 69247  53.1585 255.2618 0001577  49.6212 310.4948 15.82040330  2603
STARLINK-37412          
1 69248U 26117L   26165.82411093  .00201666  00000+0  94962-3 0  9997
2 69248  53.1587 255.2389 0000821  87.1027 273.0090 15.82025163  2602
STARLINK-37398          
1 69249U 26117M   26165.70031758  .00122100  00000+0  61277-3 0  9999
2 69249  53.1594 255.8904 0001165  96.7808 263.3347 15.80897026  2582
STARLINK-37499          
1 69250U 26117N   26165.82238938  .00215359  00000+0  10107-2 0  9997
2 69250  53.1588 255.2274 0001410  43.8750 316.2385 15.82058758  2609
STARLINK-37489          
1 69251U 26117P   26165.75745072  .00250168  00000+0  11677-2 0  9992
2 69251  53.1588 255.5335 0001012  81.8112 278.3026 15.82077819  2590
STARLINK-37434          
1 69252U 26117Q   26165.81765552  .00151808  00000+0  71925-3 0  9999
2 69252  53.1583 255.1941 0000680  98.5965 261.5135 15.82042485  2604
STARLINK-37368          
1 69253U 26117R   26165.81091231  .00164177  00000+0  77645-3 0  9994
2 69253  53.1584 255.1489 0000982  80.0141 280.0993 15.82042920  2602
STARLINK-37517          
1 69254U 26117S   26165.80959698  .00208486  00000+0  98002-3 0  9996
2 69254  53.1582 255.1400 0001925  30.1971 329.9163 15.82043045  2600
STARLINK-37378          
1 69255U 26117T   26165.80926787  .00182564  00000+0  86170-3 0  9991
2 69255  53.1583 255.1379 0002390  33.5591 326.5583 15.82028718  2608
STARLINK-37396          
1 69256U 26117U   26165.86998859  .00123310  00000+0  58738-3 0  9990
2 69256  53.1581 254.8036 0001565  51.3354 308.7808 15.82020859  2612
