OBJECT_NAME,OBJECT_ID,EPOCH,MEAN_MOTION,ECCENTRICITY,INCLINATION,RA_OF_ASC_NODE,ARG_OF_PERICENTER,MEAN_ANOMALY,EPHEMERIS_TYPE,CLASSIFICATION_TYPE,NORAD_CAT_ID,ELEMENT_SET_NO,REV_AT_EPOCH,BSTAR,MEAN_MOTION_DOT,MEAN_MOTION_DDOT
STARLINK-37736,2026-115R,2026-06-14T20:00:04.998816,15.65424404,.0001054,97.2842,183.1725,79.7657,280.9477,0,U,69226,999,431,-.14073E-1,-.1255497E-1,0
STARLINK-37737,2026-115S,2026-06-14T20:00:04.998816,15.68443756,.000168,97.2839,183.1875,85.2502,313.6141,0,U,69227,999,433,-.26544E-1,-.2594854E-1,0
STARLINK-37618,2026-115T,2026-06-14T20:00:04.998816,15.52456419,.0002237,97.2842,183.1052,71.5725,122.3271,0,U,69228,999,431,-.38407E-1,-.2088039E-1,0
STARLINK-37679,2026-115U,2026-06-14T20:00:04.998816,15.53440261,.0002272,97.2841,183.1039,90.9837,115.4161,0,U,69229,999,431,-.50126E-1,-.2778603E-1,0
STARLINK-37746,2026-115V,2026-06-14T20:00:04.998816,15.51744687,.0001597,97.2840,183.0897,90.4613,74.4058,0,U,69230,999,431,-.6135E-1,-.3205984E-1,0
STARLINK-37557,2026-115W,2026-06-14T20:00:04.998816,15.49132926,.0001693,97.2837,183.0324,100.4498,287.1919,0,U,69231,999,431,.14218E-2,.77851E-3,0
STARLINK-37745,2026-115X,2026-06-14T20:00:04.998816,15.69705609,.0001622,97.2837,183.2068,74.3346,8.6995,0,U,69232,999,431,-.24693E-1,-.2550195E-1,0
STARLINK-37739,2026-115Y,2026-06-14T20:00:04.998816,15.51740916,.0001446,97.2838,183.0875,81.3568,68.9625,0,U,69233,999,431,-.23297E-1,-.1258816E-1,0
STARLINK-37755,2026-115Z,2026-06-14T20:16:34.651200,15.75228478,.0001325,97.2831,183.1560,79.2905,280.8509,0,U,69234,999,431,.10741E-2,.163453E-2,0
TJS-24,2026-116A,2026-06-14T21:05:49.989120,1.00267259,.0000395,0.0123,7.6782,59.0300,243.1940,0,U,69235,999,20,0,0,0
STARLINK-37665,2026-117A,2026-06-14T17:14:32.090208,15.82018892,.0000991,53.1586,256.0149,87.5588,272.5548,0,U,69238,999,258,.54971E-3,.115235E-2,0
STARLINK-37558,2026-117B,2026-06-14T17:13:09.751008,15.82047166,.0000964,53.1586,256.0083,120.8881,239.2237,0,U,69239,999,258,.83227E-3,.176316E-2,0
STARLINK-37680,2026-117C,2026-06-14T20:13:02.540064,15.82034738,.0002221,53.1586,255.3644,50.1807,309.9412,0,U,69240,999,260,.92113E-3,.195549E-2,0
STARLINK-37742,2026-117D,2026-06-14T20:10:28.310016,15.82041235,.0002387,53.1589,255.3530,39.5239,320.5958,0,U,69241,999,260,.95244E-3,.202448E-2,0
STARLINK-37718,2026-117E,2026-06-14T20:08:40.380000,15.82013960,.0002166,53.1589,255.3446,24.6138,335.4989,0,U,69242,999,260,.23081E-3,.47584E-3,0
STARLINK-37735,2026-117F,2026-06-14T17:06:36.243072,15.82173095,.0000448,53.1586,255.9780,81.5421,278.5653,0,U,69243,999,258,.29408E-2,.665652E-2,0
STARLINK-37757,2026-117G,2026-06-14T17:03:08.544384,15.82025540,.0000806,53.1589,255.9620,79.1215,280.9899,0,U,69244,999,258,.66404E-3,.139795E-2,0
STARLINK-37767,2026-117H,2026-06-14T19:58:57.165312,15.82030972,.0002072,53.1583,255.2974,41.4867,318.6313,0,U,69245,999,260,.93007E-3,.197462E-2,0
STARLINK-35759,2026-117J,2026-06-14T19:57:57.500064,15.82039899,.0000778,53.1586,255.2933,87.4636,272.6476,0,U,69246,999,260,.79155E-3,.167423E-2,0
STARLINK-37238,2026-117K,2026-06-14T19:51:34.018848,15.82040330,.0001577,53.1585,255.2618,49.6212,310.4948,0,U,69247,999,260,.8515E-3,.180436E-2,0
STARLINK-37412,2026-117L,2026-06-14T19:46:43.184352,15.82025163,.0000821,53.1587,255.2389,87.1027,273.0090,0,U,69248,999,260,.94962E-3,.201666E-2,0
STARLINK-37398,2026-117M,2026-06-14T16:48:27.438912,15.80897026,.0001165,53.1594,255.8904,96.7808,263.3347,0,U,69249,999,258,.61277E-3,.1221E-2,0
STARLINK-37499,2026-117N,2026-06-14T19:44:14.442432,15.82058758,.000141,53.1588,255.2274,43.8750,316.2385,0,U,69250,999,260,.10107E-2,.215359E-2,0
STARLINK-37489,2026-117P,2026-06-14T18:10:43.742208,15.82077819,.0001012,53.1588,255.5335,81.8112,278.3026,0,U,69251,999,259,.11677E-2,.250168E-2,0
STARLINK-37434,2026-117Q,2026-06-14T19:37:25.436928,15.82042485,.000068,53.1583,255.1941,98.5965,261.5135,0,U,69252,999,260,.71925E-3,.151808E-2,0
STARLINK-37368,2026-117R,2026-06-14T19:27:42.823584,15.82042920,.0000982,53.1584,255.1489,80.0141,280.0993,0,U,69253,999,260,.77645E-3,.164177E-2,0
STARLINK-37517,2026-117S,2026-06-14T19:25:49.179072,15.82043045,.0001925,53.1582,255.1400,30.1971,329.9163,0,U,69254,999,260,.98002E-3,.208486E-2,0
STARLINK-37378,2026-117T,2026-06-14T19:25:20.743968,15.82028718,.000239,53.1583,255.1379,33.5591,326.5583,0,U,69255,999,260,.8617E-3,.182564E-2,0
STARLINK-37396,2026-117U,2026-06-14T20:52:47.014176,15.82020859,.0001565,53.1581,254.8036,51.3354,308.7808,0,U,69256,999,261,.58738E-3,.12331E-2,0
